start=new Date('2023-03-19T00:00:00.000Z').valueOf();
sats=[{"MEAN_MOTION_DOT":"0.00018937","APOAPSIS":"548.091","OBJECT_NAME":"STARLINK-1612","TIME_SYSTEM":"UTC","PERIAPSIS":"546.108","TLE_LINE2":"2 46164  53.0537 115.6973 0001432  90.1832 269.9321 15.06437293143472","NORAD_CAT_ID":"46164","REV_AT_EPOCH":"14347","RCS_SIZE":"LARGE","LAUNCH_DATE":"2020-08-18","PERIOD":"95.590","REF_FRAME":"TEME","ELEMENT_SET_NO":"999","BSTAR":"0.00128550000000","EPHEMERIS_TYPE":"0","ECCENTRICITY":"0.00014320","OBJECT_ID":"2020-057AZ","SITE":"AFETR","OBJECT_TYPE":"PAYLOAD","MEAN_ELEMENT_THEORY":"SGP4","MEAN_ANOMALY":"269.9321","TLE_LINE1":"1 46164U 20057AZ  23077.83482949  .00018937  00000-0  12855-2 0  9992","CENTER_NAME":"EARTH","GP_ID":"228375487","COUNTRY_CODE":"US","SEMIMAJOR_AXIS":"6925.234","RA_OF_ASC_NODE":"115.6973","ARG_OF_PERICENTER":"90.1832","CLASSIFICATION_TYPE":"U","FILE":"3864241","EPOCH":"2023-03-18T20:02:09.267936","DECAY_DATE":null,"MEAN_MOTION_DDOT":"0.0000000000000","INCLINATION":"53.0537","MEAN_MOTION":"15.06437293"},{"CLASSIFICATION_TYPE":"U","EPOCH":"2023-03-18T20:24:26.282016","FILE":"3864479","RA_OF_ASC_NODE":"127.1008","ARG_OF_PERICENTER":"13.3262","MEAN_MOTION":"15.28509518","DECAY_DATE":null,"MEAN_MOTION_DDOT":"0.0000000000000","INCLINATION":"53.0633","OBJECT_ID":"2020-057BA","SITE":"AFETR","OBJECT_TYPE":"PAYLOAD","ECCENTRICITY":"0.00052830","MEAN_ANOMALY":"346.7876","TLE_LINE1":"1 46165U 20057BA  23077.85030419  .00016421  00000-0  59513-3 0  9995","COUNTRY_CODE":"US","GP_ID":"228400602","CENTER_NAME":"EARTH","SEMIMAJOR_AXIS":"6858.404","MEAN_ELEMENT_THEORY":"SGP4","LAUNCH_DATE":"2020-08-18","RCS_SIZE":"LARGE","PERIOD":"94.209","REF_FRAME":"TEME","ELEMENT_SET_NO":"999","BSTAR":"0.00059513000000","EPHEMERIS_TYPE":"0","TIME_SYSTEM":"UTC","PERIAPSIS":"476.646","MEAN_MOTION_DOT":"0.00016421","OBJECT_NAME":"STARLINK-1613","APOAPSIS":"483.892","TLE_LINE2":"2 46165  53.0633 127.1008 0005283  13.3262 346.7876 15.28509518142662","NORAD_CAT_ID":"46165","REV_AT_EPOCH":"14266"},{"MEAN_ELEMENT_THEORY":"SGP4","CENTER_NAME":"EARTH","GP_ID":"228400856","COUNTRY_CODE":"US","SEMIMAJOR_AXIS":"6925.289","MEAN_ANOMALY":"268.4902","TLE_LINE1":"1 46166U 20057BB  23077.62107006  .00020082  00000-0  13625-2 0  9999","ECCENTRICITY":"0.00016170","SITE":"AFETR","OBJECT_TYPE":"PAYLOAD","OBJECT_ID":"2020-057BB","INCLINATION":"53.0523","DECAY_DATE":null,"MEAN_MOTION_DDOT":"0.0000000000000","MEAN_MOTION":"15.06419321","ARG_OF_PERICENTER":"91.6272","RA_OF_ASC_NODE":"156.6597","EPOCH":"2023-03-18T14:54:20.453184","FILE":"3864479","CLASSIFICATION_TYPE":"U","REV_AT_EPOCH":"14222","NORAD_CAT_ID":"46166","TLE_LINE2":"2 46166  53.0523 156.6597 0001617  91.6272 268.4902 15.06419321142228","MEAN_MOTION_DOT":"0.00020082","OBJECT_NAME":"STARLINK-1615","APOAPSIS":"548.274","PERIAPSIS":"546.035","TIME_SYSTEM":"UTC","ELEMENT_SET_NO":"999","EPHEMERIS_TYPE":"0","BSTAR":"0.00136250000000","PERIOD":"95.591","REF_FRAME":"TEME","RCS_SIZE":"LARGE","LAUNCH_DATE":"2020-08-18"},{"TIME_SYSTEM":"UTC","PERIAPSIS":"546.422","APOAPSIS":"548.372","OBJECT_NAME":"STARLINK-1626","MEAN_MOTION_DOT":"0.00026062","TLE_LINE2":"2 46167  53.0545 155.4018 0001408  72.9723 287.1420 15.06340029142264","REV_AT_EPOCH":"14226","NORAD_CAT_ID":"46167","LAUNCH_DATE":"2020-08-18","RCS_SIZE":"LARGE","REF_FRAME":"TEME","PERIOD":"95.596","BSTAR":"0.00176490000000","EPHEMERIS_TYPE":"0","ELEMENT_SET_NO":"999","OBJECT_ID":"2020-057BC","OBJECT_TYPE":"PAYLOAD","SITE":"AFETR","ECCENTRICITY":"0.00014080","TLE_LINE1":"1 46167U 20057BC  23077.90112998  .00026062  00000-0  17649-2 0  9991","MEAN_ANOMALY":"287.1420","SEMIMAJOR_AXIS":"6925.532","GP_ID":"228399610","COUNTRY_CODE":"US","CENTER_NAME":"EARTH","MEAN_ELEMENT_THEORY":"SGP4","CLASSIFICATION_TYPE":"U","EPOCH":"2023-03-18T21:37:37.630272","FILE":"3864479","RA_OF_ASC_NODE":"155.4018","ARG_OF_PERICENTER":"72.9723","MEAN_MOTION":"15.06340029","MEAN_MOTION_DDOT":"0.0000000000000","DECAY_DATE":null,"INCLINATION":"53.0545"},{"NORAD_CAT_ID":"46168","REV_AT_EPOCH":"14287","TLE_LINE2":"2 46168  53.0521 107.9656 0002709  81.7523 278.3773 15.06401989142873","PERIAPSIS":"545.331","TIME_SYSTEM":"UTC","APOAPSIS":"549.084","OBJECT_NAME":"STARLINK-1627","MEAN_MOTION_DOT":"0.00015268","BSTAR":"0.00104160000000","EPHEMERIS_TYPE":"0","ELEMENT_SET_NO":"999","REF_FRAME":"TEME","PERIOD":"95.592","LAUNCH_DATE":"2020-08-18","RCS_SIZE":"LARGE","SEMIMAJOR_AXIS":"6925.342","COUNTRY_CODE":"US","GP_ID":"228400359","CENTER_NAME":"EARTH","MEAN_ANOMALY":"278.3773","TLE_LINE1":"1 46168U 20057BD  23077.34920090  .00015268  00000-0  10416-2 0  9991","MEAN_ELEMENT_THEORY":"SGP4","OBJECT_TYPE":"PAYLOAD","SITE":"AFETR","OBJECT_ID":"2020-057BD","ECCENTRICITY":"0.00027090","MEAN_MOTION":"15.06401989","INCLINATION":"53.0521","MEAN_MOTION_DDOT":"0.0000000000000","DECAY_DATE":null,"EPOCH":"2023-03-18T08:22:50.957760","FILE":"3864479","CLASSIFICATION_TYPE":"U","ARG_OF_PERICENTER":"81.7523","RA_OF_ASC_NODE":"107.9656"},{"RA_OF_ASC_NODE":"155.7202","ARG_OF_PERICENTER":"83.9337","CLASSIFICATION_TYPE":"U","EPOCH":"2023-03-18T21:59:01.178304","FILE":"3864479","DECAY_DATE":null,"MEAN_MOTION_DDOT":"0.0000000000000","INCLINATION":"53.0556","MEAN_MOTION":"15.06420284","ECCENTRICITY":"0.00021090","OBJECT_ID":"2020-057BE","SITE":"AFETR","OBJECT_TYPE":"PAYLOAD","MEAN_ELEMENT_THEORY":"SGP4","TLE_LINE1":"1 46169U 20057BE  23077.91598586  .00018686  00000-0  12693-2 0  9992","MEAN_ANOMALY":"276.1892","GP_ID":"228401102","COUNTRY_CODE":"US","CENTER_NAME":"EARTH","SEMIMAJOR_AXIS":"6925.286","RCS_SIZE":"LARGE","LAUNCH_DATE":"2020-08-18","PERIOD":"95.591","REF_FRAME":"TEME","ELEMENT_SET_NO":"999","EPHEMERIS_TYPE":"0","BSTAR":"0.00126930000000","MEAN_MOTION_DOT":"0.00018686","OBJECT_NAME":"STARLINK-1628","APOAPSIS":"548.612","TIME_SYSTEM":"UTC","PERIAPSIS":"545.691","TLE_LINE2":"2 46169  53.0556 155.7202 0002109  83.9337 276.1892 15.06420284142205","NORAD_CAT_ID":"46169","REV_AT_EPOCH":"14220"},{"CLASSIFICATION_TYPE":"U","FILE":"3864479","EPOCH":"2023-03-18T21:03:11.578176","RA_OF_ASC_NODE":"135.5091","ARG_OF_PERICENTER":"77.7013","MEAN_MOTION":"15.06439200","MEAN_MOTION_DDOT":"0.0000000000000","DECAY_DATE":null,"INCLINATION":"53.0521","OBJECT_ID":"2020-057BG","SITE":"AFETR","OBJECT_TYPE":"PAYLOAD","ECCENTRICITY":"0.00018610","MEAN_ANOMALY":"282.4185","TLE_LINE1":"1 46171U 20057BG  23077.87721734  .00022565  00000-0  15273-2 0  9991","GP_ID":"228401357","CENTER_NAME":"EARTH","COUNTRY_CODE":"US","SEMIMAJOR_AXIS":"6925.228","MEAN_ELEMENT_THEORY":"SGP4","LAUNCH_DATE":"2020-08-18","RCS_SIZE":"LARGE","PERIOD":"95.590","REF_FRAME":"TEME","ELEMENT_SET_NO":"999","BSTAR":"0.00152730000000","EPHEMERIS_TYPE":"0","TIME_SYSTEM":"UTC","PERIAPSIS":"545.805","MEAN_MOTION_DOT":"0.00022565","OBJECT_NAME":"STARLINK-1633","APOAPSIS":"548.382","TLE_LINE2":"2 46171  53.0521 135.5091 0001861  77.7013 282.4185 15.06439200143796","NORAD_CAT_ID":"46171","REV_AT_EPOCH":"14379"},{"TLE_LINE2":"2 46172  53.0518 135.4434 0001463  69.6600 290.4546 15.06477794143793","REV_AT_EPOCH":"14379","NORAD_CAT_ID":"46172","TIME_SYSTEM":"UTC","PERIAPSIS":"545.962","APOAPSIS":"547.988","OBJECT_NAME":"STARLINK-1635","MEAN_MOTION_DOT":"0.00031280","REF_FRAME":"TEME","PERIOD":"95.587","BSTAR":"0.00210510000000","EPHEMERIS_TYPE":"0","ELEMENT_SET_NO":"999","LAUNCH_DATE":"2020-08-18","RCS_SIZE":"LARGE","TLE_LINE1":"1 46172U 20057BH  23077.89194974  .00031280  00000-0  21051-2 0  9999","MEAN_ANOMALY":"290.4546","SEMIMAJOR_AXIS":"6925.110","COUNTRY_CODE":"US","GP_ID":"228400111","CENTER_NAME":"EARTH","MEAN_ELEMENT_THEORY":"SGP4","OBJECT_ID":"2020-057BH","OBJECT_TYPE":"PAYLOAD","SITE":"AFETR","ECCENTRICITY":"0.00014630","MEAN_MOTION":"15.06477794","MEAN_MOTION_DDOT":"0.0000000000000","DECAY_DATE":null,"INCLINATION":"53.0518","CLASSIFICATION_TYPE":"U","EPOCH":"2023-03-18T21:24:24.457536","FILE":"3864479","RA_OF_ASC_NODE":"135.4434","ARG_OF_PERICENTER":"69.6600"},{"OBJECT_ID":"2020-057BJ","SITE":"AFETR","OBJECT_TYPE":"PAYLOAD","ECCENTRICITY":"0.00013630","TLE_LINE1":"1 46173U 20057BJ  23077.93805268  .00021509  00000-0  14572-2 0  9993","MEAN_ANOMALY":"275.2945","COUNTRY_CODE":"US","GP_ID":"228399859","CENTER_NAME":"EARTH","SEMIMAJOR_AXIS":"6925.247","MEAN_ELEMENT_THEORY":"SGP4","CLASSIFICATION_TYPE":"U","FILE":"3864479","EPOCH":"2023-03-18T22:30:47.751552","RA_OF_ASC_NODE":"155.2337","ARG_OF_PERICENTER":"84.8200","MEAN_MOTION":"15.06432992","MEAN_MOTION_DDOT":"0.0000000000000","DECAY_DATE":null,"INCLINATION":"53.0530","TIME_SYSTEM":"UTC","PERIAPSIS":"546.169","MEAN_MOTION_DOT":"0.00021509","APOAPSIS":"548.056","OBJECT_NAME":"STARLINK-1640","TLE_LINE2":"2 46173  53.0530 155.2337 0001363  84.8200 275.2945 15.06432992142260","NORAD_CAT_ID":"46173","REV_AT_EPOCH":"14226","LAUNCH_DATE":"2020-08-18","RCS_SIZE":"LARGE","PERIOD":"95.590","REF_FRAME":"TEME","ELEMENT_SET_NO":"999","EPHEMERIS_TYPE":"0","BSTAR":"0.00145720000000"},{"TLE_LINE2":"2 46174  53.0521 157.2844 0001806  72.0173 288.1013 15.06395582142190","REV_AT_EPOCH":"14219","NORAD_CAT_ID":"46174","APOAPSIS":"548.478","OBJECT_NAME":"STARLINK-1641","MEAN_MOTION_DOT":"0.00039967","TIME_SYSTEM":"UTC","PERIAPSIS":"545.976","REF_FRAME":"TEME","PERIOD":"95.592","BSTAR":"0.00268720000000","EPHEMERIS_TYPE":"0","ELEMENT_SET_NO":"999","RCS_SIZE":"LARGE","LAUNCH_DATE":"2020-08-18","MEAN_ELEMENT_THEORY":"SGP4","MEAN_ANOMALY":"288.1013","TLE_LINE1":"1 46174U 20057BK  23077.48096855  .00039967  00000-0  26872-2 0  9991","SEMIMAJOR_AXIS":"6925.362","COUNTRY_CODE":"US","GP_ID":"228400603","CENTER_NAME":"EARTH","ECCENTRICITY":"0.00018060","OBJECT_ID":"2020-057BK","OBJECT_TYPE":"PAYLOAD","SITE":"AFETR","DECAY_DATE":null,"MEAN_MOTION_DDOT":"0.0000000000000","INCLINATION":"53.0521","MEAN_MOTION":"15.06395582","RA_OF_ASC_NODE":"157.2844","ARG_OF_PERICENTER":"72.0173","CLASSIFICATION_TYPE":"U","FILE":"3864479","EPOCH":"2023-03-18T11:32:35.682720"}];
